CCSDS_OMM_VERS = 2.0
CREATION_DATE  = 
ORIGINATOR     = 

OBJECT_NAME    = UNKNOWN
OBJECT_ID      = 
CENTER_NAME    = EARTH
REF_FRAME      = TEME
TIME_SYSTEM    = UTC
MEAN_ELEMENT_THEORY = SGP/SGP4

EPOCH          = 2025-12-26T21:47:31.625952
MEAN_MOTION    = 13.66101838
ECCENTRICITY   = .0106422
INCLINATION    = 90.3485
RA_OF_ASC_NODE = 69.9169
ARG_OF_PERICENTER = 213.8183
MEAN_ANOMALY   = 145.6159

EPHEMERIS_TYPE = 0
CLASSIFICATION_TYPE = U
NORAD_CAT_ID   = 87159
ELEMENT_SET_NO = 999
REV_AT_EPOCH   = 55862
BSTAR          = .16734E-2
MEAN_MOTION_DOT = .144E-4
MEAN_MOTION_DDOT = 0

CCSDS_OMM_VERS = 2.0
CREATION_DATE  = 
ORIGINATOR     = 

OBJECT_NAME    = UNKNOWN
OBJECT_ID      = 
CENTER_NAME    = EARTH
REF_FRAME      = TEME
TIME_SYSTEM    = UTC
MEAN_ELEMENT_THEORY = SGP/SGP4

EPOCH          = 2025-12-25T23:35:39.267168
MEAN_MOTION    = 13.64002283
ECCENTRICITY   = .0642842
INCLINATION    = 65.5983
RA_OF_ASC_NODE = 203.6405
ARG_OF_PERICENTER = 58.6782
MEAN_ANOMALY   = 307.5573

EPHEMERIS_TYPE = 0
CLASSIFICATION_TYPE = U
NORAD_CAT_ID   = 87163
ELEMENT_SET_NO = 999
REV_AT_EPOCH   = 57932
BSTAR          = .71598E-3
MEAN_MOTION_DOT = .2311E-4
MEAN_MOTION_DDOT = 0

CCSDS_OMM_VERS = 2.0
CREATION_DATE  = 
ORIGINATOR     = 

OBJECT_NAME    = UNKNOWN
OBJECT_ID      = 
CENTER_NAME    = EARTH
REF_FRAME      = TEME
TIME_SYSTEM    = UTC
MEAN_ELEMENT_THEORY = SGP/SGP4

EPOCH          = 2025-12-25T02:33:55.914624
MEAN_MOTION    = 14.58505009
ECCENTRICITY   = .0099339
INCLINATION    = 65.2046
RA_OF_ASC_NODE = 291.7918
ARG_OF_PERICENTER = 48.5135
MEAN_ANOMALY   = 312.4438

EPHEMERIS_TYPE = 0
CLASSIFICATION_TYPE = U
NORAD_CAT_ID   = 87164
ELEMENT_SET_NO = 999
REV_AT_EPOCH   = 63757
BSTAR          = .13325E-2
MEAN_MOTION_DOT = .6527E-4
MEAN_MOTION_DDOT = 0

CCSDS_OMM_VERS = 2.0
CREATION_DATE  = 
ORIGINATOR     = 

OBJECT_NAME    = UNKNOWN
OBJECT_ID      = 
CENTER_NAME    = EARTH
REF_FRAME      = TEME
TIME_SYSTEM    = UTC
MEAN_ELEMENT_THEORY = SGP/SGP4

EPOCH          = 2025-12-27T01:28:49.719648
MEAN_MOTION    = 14.29403847
ECCENTRICITY   = .0045488
INCLINATION    = 98.5355
RA_OF_ASC_NODE = 221.5910
ARG_OF_PERICENTER = 283.3584
MEAN_ANOMALY   = 76.2529

EPHEMERIS_TYPE = 0
CLASSIFICATION_TYPE = U
NORAD_CAT_ID   = 87204
ELEMENT_SET_NO = 999
REV_AT_EPOCH   = 62748
BSTAR          = .11634E-2
MEAN_MOTION_DOT = .2957E-4
MEAN_MOTION_DDOT = 0

CCSDS_OMM_VERS = 2.0
CREATION_DATE  = 
ORIGINATOR     = 

OBJECT_NAME    = UNKNOWN
OBJECT_ID      = 
CENTER_NAME    = EARTH
REF_FRAME      = TEME
TIME_SYSTEM    = UTC
MEAN_ELEMENT_THEORY = SGP/SGP4

EPOCH          = 2025-12-16T06:11:51.883296
MEAN_MOTION    = 14.46497136
ECCENTRICITY   = .0053568
INCLINATION    = 99.0856
RA_OF_ASC_NODE = 350.3221
ARG_OF_PERICENTER = 148.0777
MEAN_ANOMALY   = 229.8953

EPHEMERIS_TYPE = 0
CLASSIFICATION_TYPE = U
NORAD_CAT_ID   = 87211
ELEMENT_SET_NO = 999
REV_AT_EPOCH   = 70828
BSTAR          = .66849E-3
MEAN_MOTION_DOT = .2398E-4
MEAN_MOTION_DDOT = 0

CCSDS_OMM_VERS = 2.0
CREATION_DATE  = 
ORIGINATOR     = 

OBJECT_NAME    = UNKNOWN
OBJECT_ID      = 
CENTER_NAME    = EARTH
REF_FRAME      = TEME
TIME_SYSTEM    = UTC
MEAN_ELEMENT_THEORY = SGP/SGP4

EPOCH          = 2025-12-18T05:52:04.312704
MEAN_MOTION    = 13.84104450
ECCENTRICITY   = .0073557
INCLINATION    = 100.3307
RA_OF_ASC_NODE = 351.4512
ARG_OF_PERICENTER = 240.6999
MEAN_ANOMALY   = 118.6788

EPHEMERIS_TYPE = 0
CLASSIFICATION_TYPE = U
NORAD_CAT_ID   = 87214
ELEMENT_SET_NO = 999
REV_AT_EPOCH   = 60100
BSTAR          = .63491E-3
MEAN_MOTION_DOT = .669E-5
MEAN_MOTION_DDOT = 0

CCSDS_OMM_VERS = 2.0
CREATION_DATE  = 
ORIGINATOR     = 

OBJECT_NAME    = UNKNOWN
OBJECT_ID      = 
CENTER_NAME    = EARTH
REF_FRAME      = TEME
TIME_SYSTEM    = UTC
MEAN_ELEMENT_THEORY = SGP/SGP4

EPOCH          = 2025-12-27T09:49:13.045728
MEAN_MOTION    = 13.91766724
ECCENTRICITY   = .0102876
INCLINATION    = 99.2548
RA_OF_ASC_NODE = 56.8604
ARG_OF_PERICENTER = 244.2819
MEAN_ANOMALY   = 134.1488

EPHEMERIS_TYPE = 0
CLASSIFICATION_TYPE = U
NORAD_CAT_ID   = 87237
ELEMENT_SET_NO = 999
REV_AT_EPOCH   = 61380
BSTAR          = .31063E-3
MEAN_MOTION_DOT = .367E-5
MEAN_MOTION_DDOT = 0

CCSDS_OMM_VERS = 2.0
CREATION_DATE  = 
ORIGINATOR     = 

OBJECT_NAME    = UNKNOWN
OBJECT_ID      = 
CENTER_NAME    = EARTH
REF_FRAME      = TEME
TIME_SYSTEM    = UTC
MEAN_ELEMENT_THEORY = SGP/SGP4

EPOCH          = 2025-12-26T04:19:39.098496
MEAN_MOTION    = 14.52182877
ECCENTRICITY   = .001712
INCLINATION    = 82.8727
RA_OF_ASC_NODE = 71.4519
ARG_OF_PERICENTER = 0.9693
MEAN_ANOMALY   = 359.1535

EPHEMERIS_TYPE = 0
CLASSIFICATION_TYPE = U
NORAD_CAT_ID   = 87239
ELEMENT_SET_NO = 999
REV_AT_EPOCH   = 62982
BSTAR          = .21994E-2
MEAN_MOTION_DOT = .8957E-4
MEAN_MOTION_DDOT = 0

CCSDS_OMM_VERS = 2.0
CREATION_DATE  = 
ORIGINATOR     = 

OBJECT_NAME    = UNKNOWN
OBJECT_ID      = 
CENTER_NAME    = EARTH
REF_FRAME      = TEME
TIME_SYSTEM    = UTC
MEAN_ELEMENT_THEORY = SGP/SGP4

EPOCH          = 2025-12-27T11:37:22.155744
MEAN_MOTION    = 14.15934701
ECCENTRICITY   = .0428524
INCLINATION    = 65.6432
RA_OF_ASC_NODE = 8.3737
ARG_OF_PERICENTER = 113.8376
MEAN_ANOMALY   = 326.6139

EPHEMERIS_TYPE = 0
CLASSIFICATION_TYPE = U
NORAD_CAT_ID   = 87245
ELEMENT_SET_NO = 999
REV_AT_EPOCH   = 61629
BSTAR          = .6365E-3
MEAN_MOTION_DOT = .2985E-4
MEAN_MOTION_DDOT = 0

CCSDS_OMM_VERS = 2.0
CREATION_DATE  = 
ORIGINATOR     = 

OBJECT_NAME    = UNKNOWN
OBJECT_ID      = 
CENTER_NAME    = EARTH
REF_FRAME      = TEME
TIME_SYSTEM    = UTC
MEAN_ELEMENT_THEORY = SGP/SGP4

EPOCH          = 2025-12-25T22:03:26.038368
MEAN_MOTION    = 14.21822587
ECCENTRICITY   = .0419585
INCLINATION    = 65.7537
RA_OF_ASC_NODE = 200.8724
ARG_OF_PERICENTER = 66.5990
MEAN_ANOMALY   = 297.8637

EPHEMERIS_TYPE = 0
CLASSIFICATION_TYPE = U
NORAD_CAT_ID   = 87271
ELEMENT_SET_NO = 999
REV_AT_EPOCH   = 61424
BSTAR          = .10411E-2
MEAN_MOTION_DOT = .5584E-4
MEAN_MOTION_DDOT = 0

CCSDS_OMM_VERS = 2.0
CREATION_DATE  = 
ORIGINATOR     = 

OBJECT_NAME    = UNKNOWN
OBJECT_ID      = 
CENTER_NAME    = EARTH
REF_FRAME      = TEME
TIME_SYSTEM    = UTC
MEAN_ELEMENT_THEORY = SGP/SGP4

EPOCH          = 2025-12-24T20:06:13.576032
MEAN_MOTION    = 13.48564209
ECCENTRICITY   = .0128738
INCLINATION    = 64.6137
RA_OF_ASC_NODE = 205.4528
ARG_OF_PERICENTER = 258.3652
MEAN_ANOMALY   = 100.2914

EPHEMERIS_TYPE = 0
CLASSIFICATION_TYPE = U
NORAD_CAT_ID   = 87280
ELEMENT_SET_NO = 999
REV_AT_EPOCH   = 53548
BSTAR          = .6111E-3
MEAN_MOTION_DOT = .317E-5
MEAN_MOTION_DDOT = 0

CCSDS_OMM_VERS = 2.0
CREATION_DATE  = 
ORIGINATOR     = 

OBJECT_NAME    = UNKNOWN
OBJECT_ID      = 
CENTER_NAME    = EARTH
REF_FRAME      = TEME
TIME_SYSTEM    = UTC
MEAN_ELEMENT_THEORY = SGP/SGP4

EPOCH          = 2025-12-26T16:50:35.496672
MEAN_MOTION    = 14.18127650
ECCENTRICITY   = .0427336
INCLINATION    = 65.8960
RA_OF_ASC_NODE = 108.1339
ARG_OF_PERICENTER = 352.0751
MEAN_ANOMALY   = 7.3719

EPHEMERIS_TYPE = 0
CLASSIFICATION_TYPE = U
NORAD_CAT_ID   = 87293
ELEMENT_SET_NO = 999
REV_AT_EPOCH   = 61597
BSTAR          = .96178E-3
MEAN_MOTION_DOT = .4828E-4
MEAN_MOTION_DDOT = 0

