UNKNOWN                 
1 87159U          25360.90800493  .00001440  00000+0  16734-2 0  9990
2 87159  90.3485  69.9169 0106422 213.8183 145.6159 13.66101838558626
UNKNOWN                 
1 87163U          25359.98309337  .00002311  00000+0  71598-3 0  9990
2 87163  65.5983 203.6405 0642842  58.6782 307.5573 13.64002283579320
UNKNOWN                 
1 87164U          25359.10689716  .00006527  00000+0  13325-2 0  9993
2 87164  65.2046 291.7918 0099339  48.5135 312.4438 14.58505009637577
UNKNOWN                 
1 87204U          25361.06168657  .00002957  00000+0  11634-2 0  9996
2 87204  98.5355 221.5910 0045488 283.3584  76.2529 14.29403847627480
UNKNOWN                 
1 87211U          25350.25823939  .00002398  00000+0  66849-3 0  9992
2 87211  99.0856 350.3221 0053568 148.0777 229.8953 14.46497136708283
UNKNOWN                 
1 87214U          25352.24449436  .00000669  00000+0  63491-3 0  9991
2 87214 100.3307 351.4512 0073557 240.6999 118.6788 13.84104450601001
UNKNOWN                 
1 87237U          25361.40917877  .00000367  00000+0  31063-3 0  9998
2 87237  99.2548  56.8604 0102876 244.2819 134.1488 13.91766724613802
UNKNOWN                 
1 87239U          25360.18031364  .00008957  00000+0  21994-2 0  9996
2 87239  82.8727  71.4519 0017120   0.9693 359.1535 14.52182877629823
UNKNOWN                 
1 87245U          25361.48428421  .00002985  00000+0  63650-3 0  9992
2 87245  65.6432   8.3737 0428524 113.8376 326.6139 14.15934701616295
UNKNOWN                 
1 87271U          25359.91905137  .00005584  00000+0  10411-2 0  9994
2 87271  65.7537 200.8724 0419585  66.5990 297.8637 14.21822587614249
UNKNOWN                 
1 87280U          25358.83765713  .00000317  00000+0  61110-3 0  9990
2 87280  64.6137 205.4528 0128738 258.3652 100.2914 13.48564209535484
UNKNOWN                 
1 87293U          25360.70179973  .00004828  00000+0  96178-3 0  9993
2 87293  65.8960 108.1339 0427336 352.0751   7.3719 14.18127650615978
